SL-16 R/B               
1 28353U 04021B   25244.79353016 -.00000038  00000+0  48834-5 0  9992
2 28353  70.9995 268.8977 0007029 309.2682  50.7816 14.14563179 96123
CZ-4B R/B               
1 28415U 04035C   25245.06961479  .00011749  00000+0  46319-3 0  9999
2 28415  97.3755 276.8409 0033105 276.0462  83.7004 15.25215748151125
CZ-2C R/B               
1 28480U 04046B   25245.21157053  .00000590  00000+0  23466-3 0  9995
2 28480  98.1907 166.9485 0139611 352.7950   7.1223 14.26869463 81620
ARIANE 5 R/B            
1 28499U 04049H   25245.16621938  .00002268  00000+0  25899-3 0  9996
2 28499  98.2442  41.8841 0084035 241.6232 117.6491 14.84655593117816
CZ-2D R/B               
1 28738U 05024B   25245.28675953  .00042818  00000+0  85807-3 0  9995
2 28738  97.3700 250.5281 0005650  24.2582 335.8933 15.46590043110540
ALOS (DAICHI)           
1 28931U 06002A   25245.15256159  .00003704  00000+0  64054-3 0  9998
2 28931  98.0899 197.4973 0001877 111.4190 248.7216 14.68964783 45799
H-2A R/B                
1 28932U 06002B   25245.28488797  .00020201  00000+0  11314-2 0  9999
2 28932  98.2202  12.0428 0057754 160.1029 200.2470 15.12019316 65929
RESURS-DK 1             
1 29228U 06021A   25245.06420714  .00005430  00000+0  32740-3 0  9994
2 29228  69.9361   4.4266 0003177   5.7731 354.3470 15.11338098 59012
CZ-4B R/B               
1 29507U 06046C   25245.19554751  .00010205  00000+0  55040-3 0  9998
2 29507  97.5899 285.6125 0034804 197.1092 162.8969 15.14436318 31493
CZ-2C R/B               
1 31114U 07010B   25245.26558152  .00000358  00000+0  18337-3 0  9990
2 31114  98.3873   3.0832 0060065 121.6225 239.0833 14.20154813952971
COSMO-SKYMED 1          
1 31598U 07023A   25245.27024750  .00007550  00000+0  69942-3 0  9992
2 31598  97.8902  70.0597 0001586  88.9836 271.1566 14.94774508986733
GENESIS 2               
1 31789U 07028A   25245.57963458  .06672808  78822-5  53859-3 0  9992
2 31789  64.4512 106.3803 0015896 268.3182  91.6179 16.39011313  6458
COSMOS 2428             
1 31792U 07029A   25245.28543685  .00000038  00000+0  45965-4 0  9992
2 31792  70.9416 238.8452 0004349 217.0579 143.0242 14.12904155937483
SL-16 R/B               
1 31793U 07029B   25245.07534654  .00000051  00000+0  51233-4 0  9996
2 31793  70.9754 208.8503 0002886 274.2111 158.9228 14.14794451938695
KORONAS-FOTON           
1 33504U 09003A   25245.03297725  .00014192  00000+0  37778-3 0  9991
2 33504  82.4313 111.2128 0013276 110.3340 249.9332 15.37979995916692
CZ-2C R/B               
1 37731U 11030B   25244.88605053  .00002604  00000+0  34005-3 0  9994
2 37731  97.8214 201.3938 0051878 244.0548 175.1857 14.80418721762157
H-2A R/B                
1 38341U 12025E   25245.09937977  .00004642  00000+0  43923-3 0  9997
2 38341  98.4406 192.6886 0045237 207.6494 152.2318 14.93436859720053
SHIJIAN-16 (SJ-16)      
1 39358U 13057A   25245.26515914  .00004451  00000+0  44594-3 0  9997
2 39358  74.9731 181.5743 0017613 213.4300 146.5778 14.91503928643408
SL-4 R/B                
1 39679U 14021B   25245.10080451  .00016101  00000+0  41993-3 0  9996
2 39679  51.6070 173.0971 0110541 138.0309 222.9209 15.32947343627281
ALOS-2                  
1 39766U 14029A   25245.29373825  .00004516  00000+0  61095-3 0  9993
2 39766  97.9220 341.5909 0001542 101.1589 258.9796 14.79492123609014
YAOGAN-29               
1 41038U 15069A   25245.32800962  .00001048  00000+0  13660-3 0  9996
2 41038  98.0327 268.1064 0000789 168.5148 191.6083 14.82718627527964
ASTRO-H (HITOMI)        
1 41337U 16012A   25245.01467672  .00005379  00000+0  33096-3 0  9996
2 41337  30.9991 132.6884 0010155 238.8731 121.0910 15.08442396523700
HXMT (HUIYAN)           
1 42758U 17034A   25245.28654469  .00012787  00000+0  68272-3 0  9995
2 42758  43.0159 341.8963 0032724 127.0790 233.3056 15.14596022453940
CZ-2C R/B               
1 43521U 18054D   25245.14324858  .00064583  00000+0  83082-3 0  9995
2 43521  35.1368 140.0171 0032590 260.7899  98.9141 15.57250350399137
SAOCOM 1A               
1 43641U 18076A   25245.27103884  .00001028  00000+0  13570-3 0  9990
2 43641  97.8900  71.1439 0001445  89.0439 271.0940 14.82161232373450
H-2A R/B                
1 43682U 18084L   25245.05831117  .00023637  00000+0  74210-3 0  9995
2 43682  98.8833  58.4789 0030396 314.6061  45.2697 15.32584403376809
SAOCOM 1B               
1 46265U 20059A   25245.30228501  .00001057  00000+0  13930-3 0  9999
2 46265  97.8907  70.2812 0001387  89.3546 270.7826 14.82167956270841
CSS (TIANHE)            
1 48274U 21035A   25245.24202679  .00038581  00000+0  48560-3 0  9996
2 48274  41.4647 273.6483 0006359 275.3759  84.6353 15.58874926248173
COSMOS 2550             
1 48865U 21056A   25245.26307266  .00013161  00000+0  40492-3 0  9998
2 48865  67.1415 250.9466 0008441 269.2469  90.7718 15.33847315234566
CZ-2C R/B               
1 52794U 22058K   25245.14439003  .00034446  00000+0  75179-3 0  9998
2 52794  50.1910 199.0420 0054323 133.5784 226.9710 15.42270799180921
GSLV R/B                
1 54149U 22138AN  25245.22771377  .00006880  00000+0  62022-3 0  9999
2 54149  87.3774 229.4449 0024799 113.4129 246.9714 14.95182219155755
XRISM                   
1 57800U 23137A   25245.20392316  .00011543  00000+0  71028-3 0  9994
2 57800  31.0022  60.3020 0008312 307.6145  52.3738 15.08771265109270
ACS3                    
1 59588U 24077B   25244.93419274  .00028941  00000+0  27361-1 0  9994
2 59588  97.4044 222.8056 0055157   5.5700 354.6061 13.80276467 68070
